WESTAR 1                
1 07250U 74022A   26116.57615111  .00000092  00000+0  00000+0 0  9991
2 07250   7.2249 298.3875 0005906  47.3523 130.7466  0.99890571121814
TITAN 3C TRANSTAGE R/B  
1 07324U 74039C   26116.94262471  .00000111  00000+0  00000+0 0  9991
2 07324   2.8742 261.1376 0033480  83.6677 245.7431  1.00722764119109
SL-6 R/B(2)             
1 07373U 74026E   26106.95547137 -.00000352  00000+0  00000+0 0  9994
2 07373  64.1313 302.2819 7104046 269.1994  16.2621  2.06585704385671
MOLNIYA 2-10            
1 07376U 74056A   26112.98869567 -.00001223  00000+0  00000+0 0  9992
2 07376  65.3138 305.8782 6732417 269.9727  19.0897  2.01161569378627
MOLNIYA 1-S             
1 07392U 74060A   26116.94960326 -.00000334  00000+0  00000+0 0  9992
2 07392   1.5049 252.6702 0007857 280.4600 125.9568  1.00310693133661
WESTAR 2                
1 07466U 74075A   26116.54789766 -.00000166  00000+0  00000+0 0  9996
2 07466   7.3751 300.1010 0002225 204.6844 179.4104  0.99847732137143
INTELSAT 4-F8           
1 07544U 74093A   26116.91494753 -.00000296  00000+0  00000+0 0  9997
2 07544   8.0787 304.9140 0001877 197.3809   8.2782  0.99792309124690
ATLAS CENTAUR R/B       
1 07545U 74093B   26115.85873490 -.00000098  00000+0  47699-3 0  9998
2 07545  25.9990  70.7948 7198478 291.1683   9.8165  2.21277238285745
SKYNET 2B               
1 07547U 74094A   26116.86580998 -.00000153  00000+0  00000+0 0  9994
2 07547   3.7007 281.1879 0001625 179.8890 142.5110  1.00392693124244
SYMPHONIE 1             
1 07578U 74101A   26116.84691656 -.00000207  00000+0  00000+0 0  9999
2 07578   4.7073 277.6853 0002932  48.9526 174.8042  0.99963456116687
COSMOS 706              
1 07625U 75007A   26114.97753108 -.00000548  00000+0  00000+0 0  9999
2 07625  63.9521 159.3278 6862525   3.1755 359.7327  2.00622448235372
SMS 2                   
1 07648U 75011A   26116.92857256 -.00000068  00000+0  00000+0 0  9992
2 07648   5.5998 283.8650 0011882 280.5046 357.2106  0.99513818135164
MOLNIYA 1-29            
1 07780U 75036A   26115.91876793  .00000219  00000+0 -16910-1 0  9998
2 07780  64.0225  67.1273 6901584 279.2291  14.6462  2.00619467373870
ANIK A3 (TELESAT 3)     
1 07790U 75038A   26116.71377339  .00000104  00000+0  00000+0 0  9995
2 07790   7.8096 303.1374 0001930  58.0845 140.8652  1.00049267129444
SL-6 R/B(2)             
1 07800U 75036D   26112.48648221 -.00000617  00000+0  00000+0 0  9996
2 07800  63.7663 148.7257 6682174 283.3809  14.8426  1.96860844366094
ATLAS CENTAUR R/B       
1 07902U 75042B   26115.97780468 -.00000127  00000+0  10002-2 0  9995
2 07902  25.5717 271.0812 7196372 264.8756  17.1820  2.21156610279855
ATLAS AGENA R/B         
1 07964U 75055B   26116.20501841 -.00000184  00000+0  00000+0 0  9997
2 07964   9.6915 234.3297 1190652 141.6915 227.3664  1.02090885 26167
